KUIPER-00167            
1 65780U 25217U   25357.33336806 -.00042703  00000+0 -54529-2 0  9991
2 65780  51.8974  23.1577 0000232 213.4483 164.2635 14.81106747  1624
KUIPER-00168            
1 65781U 25217V   25357.33336806 -.01460758  00000+0 -49308-1 0  9995
2 65781  51.8732  12.6348 0001941 100.0367 201.9311 15.33387898  5873
KUIPER-00169            
1 65782U 25217W   25357.33336806 -.01596625  00000+0 -84402-1 0  9993
2 65782  51.8833  14.0916 0005040  54.1756 272.0108 15.18362543  4985
KUIPER-00170            
1 65783U 25217X   25357.33336806 -.00513851  00000+0 -38630-1 0  9995
2 65783  51.9123  17.1963 0007934  44.2180 199.0440 15.04378298  5707
KUIPER-00171            
1 65784U 25217Y   25357.29486522  .00262067  00000+0  19380-2 0  9992
2 65784  51.8562   2.5336 0011417  50.8762 309.3253 15.71534401 13819
KUIPER-00172            
1 65785U 25217Z   25357.33336806 -.00571192  00000+0 -25624-1 0  9998
2 65785  51.8786  13.2927 0005621  49.1310 252.2310 15.22897964  1429
KUIPER-00173            
1 65786U 25217AA  25357.33336806 -.01094242  00000+0 -60341-1 0  9991
2 65786  51.8854  14.2920 0002204  16.1086 138.0577 15.16263595  5383
KUIPER-00174            
1 65787U 25217AB  25357.33336806 -.02214815  00000+0 -80144-1 0  9996
2 65787  51.8762  12.7685 0001112   5.0407 208.9370 15.31516299  5538
